SEEDS II (CO-66)        
1 32791U 08021J   26068.92109284  .00023758  00000+0  84213-3 0  9995
2 32791  97.7519  62.3611 0001448 359.2618   0.8619 15.29097235972108
STARLINK-33662          
1 63285U 25053W   26068.48589200  .00034886  00000+0  12707-2 0  9994
2 63285  43.0008 242.8071 0002847 285.1887  74.8650 15.27593272 56166
